#dP2022 10  7 12  0  0.00000000      96 __u+U ITR00 EXT  IAC
## 2230 475200.00000000   900.00000000 59859 0.5000000000000
+  117   C06C07C08C09C10C11C12C13C14C16C19C20C21C22C23C24C25
+        C26C27C28C29C30C32C33C34C35C36C37C38C39C40C41C42C43
+        C44C45C46E01E02E03E04E05E07E08E09E10E11E12E13E14E15
+        E18E19E21E24E25E26E27E30E31E33E34E36G01G02G04G05G06
+        G07G08G09G10G11G12G13G14G15G16G17G18G19G20G21G22G23
+        G24G25G26G27G28G29G30G31G32J02J03J04R01R02R03R04R05
+        R07R08R09R11R12R13R14R15R17R18R19R20R21R24R25  0  0
++        11 10 10 10  8  8  8 10  8 11  9  8  8  9  8  8  7
++        10  8  8  8  8  8  9  7  9  7  9  8  9  9 10  8  9
++        10  8  8  8  8  8  8  8  8  7  7  7  8  8  7  8  7
++         9  7  7  8  7  8  7  8  9  6  8  8  8  8  8  9  7
++         7  8  6  7  7  6  8  7  7  7  7  7  7  8  7  8  6
++         9  7  8  7  8  8  7  8  7 11  8  8  8  8  7  8  9
++         8  8  9  7  9  8  8  7  8  7 10  8  8  9  4  0  0
%c M  cc GPS ccc cccc cccc cccc cccc ccccc ccccc ccccc ccccc
%c cc cc ccc ccc cccc cccc cccc cccc ccccc ccccc ccccc ccccc
%f  0.0000000  0.000000000  0.00000000000  0.000000000000000
%f  0.0000000  0.000000000  0.00000000000  0.000000000000000
%i    0    0    0    0      0      0      0      0         0
%i    0    0    0    0      0      0      0      0         0
/* IAC                                ULTRA-RAPID PREDICTION
/* S/V CLOCKS ARE ALIGNED TO GNSS TIME                      
/* G:C1WC2W R:C1PC2P E:C1XC5X C:C2IC6I J:C1CC2S             
/* PCV:IGS14_2218 OL/AL:FES2004  NONE     YN ORB:CoN CLK:CoN
*  2022 10 08 11 30  0.00000000
PC06 -16205.581448  25750.759674  29104.861253    901.365862
PC07 -10770.975818  40518.057713   5296.169289   -247.984085
PC08   -162.811458  25867.112559 -33249.049578    489.877170
PC09  -5331.961899  25465.451354  33462.605298   -840.788218
PC10  -5310.875978  42086.383436  -1104.587415     86.571590
PC11 -25465.257877   1086.111945  11477.174393   -363.536529
PC12 -12610.495087 -11051.142188  22351.951761   -490.060218
PC13   7398.821919  30207.717188 -28207.830695    101.382984
PC14 -15716.739292  -1887.900704 -22972.419986    706.838149
PC16 -20685.283568  24923.295562  27034.221420    131.258324
PC19  15896.114199  -9281.053333  20984.998288   -829.230115
PC20  13494.914849  10964.967453  21834.713736    869.063042
PC21  -2746.284808 -26057.274945  -9573.745548   -559.464835
PC22   9244.398142 -25095.043579   7924.517750   -862.647571
PC23  -7602.089231  14658.704853  22504.262702   -456.263787
PC24 -22560.479003 -16344.688461   1862.744167   -513.550568
PC25 -21194.201284    240.756813  18157.648449      6.716579
PC26 -12033.308746 -21306.982476 -13458.906706    -18.527195
PC27   3424.353301  15643.639865 -22871.169107     32.761506
PC28 -15668.126293  17274.085795 -15328.340040     21.919434
PC29  26164.903524  -9461.021230  -2125.021425     24.016439
PC30  20739.897975   4856.961384 -18040.379217      0.403934
PC32   2895.953985  26087.127658   9491.330240   -768.420139
PC33 -15874.428927   9280.096405 -20998.626928   -859.429462
PC34 -21498.357568  -4074.531930  17302.258696     12.109905
PC35  16340.741049 -17615.021072  14208.727272     32.358812
PC36  21457.480737    790.278624 -17792.313209   -585.402794
PC37  10336.233885  21511.933517  14458.753363   -441.661983
PC38  -8611.139150  22699.167713 -34434.579330     29.651142
PC39 -24540.402405  25273.043494  23042.755739     -0.584929
PC40 -16588.525733  37875.605777   8792.698579     -5.627513
PC41  -9435.924745  24874.024352  -8378.967862   -152.780975
PC42 -13101.492031 -12177.488898 -21380.738635   -436.083924
PC43 -26293.866938   8880.003818   2835.473170     18.462865
PC44  -3774.546073 -15721.655299  22737.106772     74.927586
PC45   7145.828631 -14821.702609 -22535.749525     -7.248130
PC46  23061.258091  15265.269956  -3554.478869     -4.933383
PE01   2943.513230 -24301.319996 -16638.227870   -542.880716
PE02  -2825.953931  24390.411381  16524.443577    329.467185
PE03 -12877.836340  25307.646178   8367.903117   -607.662676
PE04  -3940.754418 -19591.255940 -21838.046694  -1132.176336
PE05 -22484.764171  16255.902368 -10316.792598   -136.540638
PE07  18872.429739   2091.974500  22703.865298   -711.592147
PE08   3933.163691  19468.511129  21943.788376   -611.899641
PE09 -18705.628634  -2100.096534 -22851.328444   -685.914935
PE10 -22842.993458 -12555.397450  14033.490239   -482.226972
PE11 -28404.966447  -7155.777184   4242.491328   1884.049036
PE12 -14022.337142 -15767.241449  20754.084466   -211.031620
PE13  28153.582798   7580.093340  -5088.678299    430.663759
PE14  14213.280067  13891.298115 -23838.705471     21.789997
PE15  13818.905919  15717.265456 -20925.844262    715.401650
PE18 -20943.549642   1023.527544  15805.625585   -885.752678
PE19  14854.568271 -24895.561913  -5992.469322  -4321.939328
PE21  14545.741186  -8503.942799 -24330.412494   -762.233567
PE24 -18617.214720 -14361.212566  17989.504324   -879.753278
PE25 -14700.301187   8172.395786  24368.911441   -589.662306
PE26  25345.245710  -5508.580628  14252.863109  -1703.108901
PE27  18727.242541  13285.311810 -18665.181529   -410.433815
PE30  11264.781992  27334.435962  -1288.287596   -899.510677
PE31 -11864.145473 -27041.439361   2094.879189   -505.272602
PE33   8572.057091 -14533.873939  24321.763001   -454.501517
PE34  -8368.633353  14603.569168 -24358.010916     -8.417634
PE36 -25841.835670   4919.260302 -13573.946541   -442.845306
PG01  18920.060914  13885.995095 -13069.025257    270.919556
PG02 -15708.503641 -14197.685202  16584.287655   -643.184343
PG04   9782.190172  11657.483557  21768.467381   -106.877466
PG05  -6104.128764 -25537.209568   3352.135691    -99.597987
PG06  17023.963044  -8358.324687  18686.251157    485.095645
PG07  26100.547450   6119.997967   -642.007060    300.741349
PG08   1100.253691  18399.016092 -19026.871331    -87.917412
PG09  18226.687889    367.236273  19252.401683   -286.007136
PG10 -13345.392556   6875.658388 -21735.255182     -6.615532
PG11   5553.499003 -14118.265308  21801.236743    -23.578094
PG12 -10087.549410 -23455.619407   7242.095225   -289.806853
PG13   8402.024624 -20023.409795 -15337.393718    402.178942
PG14  14718.367969  -4688.040497 -21594.801472    -97.086284
PG15  -3913.325597 -18507.619177 -18974.803169    -22.624776
PG16  -1331.987684  24715.683096   8702.721086   -525.875014
PG17  21887.537597 -11651.771315  -9162.958616    666.754797
PG18 -26009.755912  -5051.769749  -2747.248539     21.961304
PG19  20176.869078 -17051.280327    199.824902    221.040143
PG20   2502.737369 -21347.417980  15759.967145    480.075502
PG21  12122.466444  14790.360003 -18126.372117    158.348197
PG22 -18005.366900  19135.223952   3581.719119    341.901559
PG23 -16261.607990  -4786.609191 -20489.860593     -0.844812
PG24 -15991.347577 -14567.930231 -16005.662586    107.658554
PG25 -15844.952599 -14263.668741  15719.025576    380.230713
PG26  -6674.731155  18942.842383  17127.657419    231.671322
PG27 -10002.780597  21681.781180 -11411.382250    201.311629
PG28  10571.314438 -14703.434227 -19010.898824    331.472794
PG29 -17206.544276  -2694.449871  20034.343255   -557.985429
PG30  23845.239825  -2558.062597 -11594.992313   -537.225597
PG31 -16645.230054   9107.152912  18621.226658   -196.069854
PG32 -20803.874933  14621.001865  -7163.687809   -256.903438
PJ02 -25635.194118  24287.574364  28030.030568     -6.741733
PJ03 -34542.878847  18389.173213 -11094.097250     -2.598662
PJ04 -20443.216122  31558.055195 -13917.785608    111.692451
PR01 -11253.537339   -857.370730 -22881.970737     15.940756
PR02 -12825.247787  17579.193169 -13215.995960    -22.906352
PR03  -6494.638416  24341.501069   3822.317406     65.114015
PR04   3017.882914  17377.934673  18440.653830    160.419401
PR05  11041.937238    965.390708  22979.499844    100.903657
PR07   6207.999145 -24358.578755  -4468.211793     42.218699
PR08  -3196.302438 -17349.940404 -18388.797380    -67.549666
PR09  10272.576037  -5396.948858 -22700.437654     80.908364
PR11 -15371.434862 -19957.018406  -3952.156481     25.151306
PR12 -18366.040011 -10558.953871  14250.070255     21.855533
PR13 -11108.899311   3874.927564  22622.411892    -27.599629
PR14   3909.063284  17605.693911  18063.668910     24.225472
PR15  15591.056183  19972.863704   2986.511790     93.334628
PR17  -7554.507555  11369.345684 -21549.934054    567.324392
PR18  10592.472730   8020.074031 -21767.284319     46.125929
PR19  22561.046075   1859.140147 -11741.006566   -206.509203
PR20  22879.080740  -7289.261048   8661.430807    -79.774347
PR21   5835.355300 -11188.352119  22162.912085   -339.909153
PR24 -22304.459056   8334.034318  -9165.979523    119.096025
PR25      0.000000      0.000000      0.000000     14.235540
EOF
